CCSDS_OMM_VERS = 2.0
CREATION_DATE  = 
ORIGINATOR     = 

OBJECT_NAME    = COSMOS 1867
OBJECT_ID      = 1987-060A
CENTER_NAME    = EARTH
REF_FRAME      = TEME
TIME_SYSTEM    = UTC
MEAN_ELEMENT_THEORY = SGP/SGP4

EPOCH          = 2026-03-25T22:17:09.544416
MEAN_MOTION    = 14.31505397
ECCENTRICITY   = .0014759
INCLINATION    = 65.0090
RA_OF_ASC_NODE = 261.2260
ARG_OF_PERICENTER = 279.6245
MEAN_ANOMALY   = 80.3171

EPHEMERIS_TYPE = 0
CLASSIFICATION_TYPE = U
NORAD_CAT_ID   = 18187
ELEMENT_SET_NO = 999
REV_AT_EPOCH   = 2226
BSTAR          = .29023936E-4
MEAN_MOTION_DOT = -.23E-6
MEAN_MOTION_DDOT = 0

CCSDS_OMM_VERS = 2.0
CREATION_DATE  = 
ORIGINATOR     = 

OBJECT_NAME    = SL-14 R/B
OBJECT_ID      = 1988-001B
CENTER_NAME    = EARTH
REF_FRAME      = TEME
TIME_SYSTEM    = UTC
MEAN_ELEMENT_THEORY = SGP/SGP4

EPOCH          = 2026-03-26T07:27:10.320768
MEAN_MOTION    = 14.85545719
ECCENTRICITY   = .00181175
INCLINATION    = 82.5162
RA_OF_ASC_NODE = 179.7326
ARG_OF_PERICENTER = 178.6707
MEAN_ANOMALY   = 181.4561

EPHEMERIS_TYPE = 0
CLASSIFICATION_TYPE = U
NORAD_CAT_ID   = 18749
ELEMENT_SET_NO = 999
REV_AT_EPOCH   = 4449
BSTAR          = .52827072E-4
MEAN_MOTION_DOT = .482E-5
MEAN_MOTION_DDOT = 0

CCSDS_OMM_VERS = 2.0
CREATION_DATE  = 
ORIGINATOR     = 

OBJECT_NAME    = COSMOS 1933
OBJECT_ID      = 1988-020A
CENTER_NAME    = EARTH
REF_FRAME      = TEME
TIME_SYSTEM    = UTC
MEAN_ELEMENT_THEORY = SGP/SGP4

EPOCH          = 2026-03-25T20:57:51.417792
MEAN_MOTION    = 15.18132864
ECCENTRICITY   = .0005085
INCLINATION    = 82.5121
RA_OF_ASC_NODE = 234.8954
ARG_OF_PERICENTER = 133.3427
MEAN_ANOMALY   = 226.8232

EPHEMERIS_TYPE = 0
CLASSIFICATION_TYPE = U
NORAD_CAT_ID   = 18958
ELEMENT_SET_NO = 999
REV_AT_EPOCH   = 5268
BSTAR          = .2041E-3
MEAN_MOTION_DOT = .4195E-4
MEAN_MOTION_DDOT = 0

CCSDS_OMM_VERS = 2.0
CREATION_DATE  = 
ORIGINATOR     = 

OBJECT_NAME    = SL-3 R/B
OBJECT_ID      = 1988-032B
CENTER_NAME    = EARTH
REF_FRAME      = TEME
TIME_SYSTEM    = UTC
MEAN_ELEMENT_THEORY = SGP/SGP4

EPOCH          = 2026-03-26T06:09:01.346976
MEAN_MOTION    = 15.20086301
ECCENTRICITY   = .00260506
INCLINATION    = 97.5214
RA_OF_ASC_NODE = 68.4532
ARG_OF_PERICENTER = 172.1257
MEAN_ANOMALY   = 188.0392

EPHEMERIS_TYPE = 0
CLASSIFICATION_TYPE = U
NORAD_CAT_ID   = 19046
ELEMENT_SET_NO = 999
REV_AT_EPOCH   = 5462
BSTAR          = .21254111E-3
MEAN_MOTION_DOT = .4559E-4
MEAN_MOTION_DDOT = 0

CCSDS_OMM_VERS = 2.0
CREATION_DATE  = 
ORIGINATOR     = 

OBJECT_NAME    = SL-16 R/B
OBJECT_ID      = 1988-039B
CENTER_NAME    = EARTH
REF_FRAME      = TEME
TIME_SYSTEM    = UTC
MEAN_ELEMENT_THEORY = SGP/SGP4

EPOCH          = 2026-03-26T06:10:19.283232
MEAN_MOTION    = 14.19618215
ECCENTRICITY   = .00235505
INCLINATION    = 71.0162
RA_OF_ASC_NODE = 33.5138
ARG_OF_PERICENTER = 310.5614
MEAN_ANOMALY   = 49.3460

EPHEMERIS_TYPE = 0
CLASSIFICATION_TYPE = U
NORAD_CAT_ID   = 19120
ELEMENT_SET_NO = 999
REV_AT_EPOCH   = 96073
BSTAR          = .7850833E-4
MEAN_MOTION_DOT = .118E-5
MEAN_MOTION_DDOT = 0

CCSDS_OMM_VERS = 2.0
CREATION_DATE  = 
ORIGINATOR     = 

OBJECT_NAME    = COSMOS 1953
OBJECT_ID      = 1988-050A
CENTER_NAME    = EARTH
REF_FRAME      = TEME
TIME_SYSTEM    = UTC
MEAN_ELEMENT_THEORY = SGP/SGP4

EPOCH          = 2026-03-26T02:54:38.500416
MEAN_MOTION    = 15.28777394
ECCENTRICITY   = .00125013
INCLINATION    = 82.5080
RA_OF_ASC_NODE = 141.7191
ARG_OF_PERICENTER = 71.3179
MEAN_ANOMALY   = 288.9416

EPHEMERIS_TYPE = 0
CLASSIFICATION_TYPE = U
NORAD_CAT_ID   = 19210
ELEMENT_SET_NO = 999
REV_AT_EPOCH   = 4029
BSTAR          = .2107321E-3
MEAN_MOTION_DOT = .5939E-4
MEAN_MOTION_DDOT = 0

CCSDS_OMM_VERS = 2.0
CREATION_DATE  = 
ORIGINATOR     = 

OBJECT_NAME    = SL-8 R/B
OBJECT_ID      = 1988-053B
CENTER_NAME    = EARTH
REF_FRAME      = TEME
TIME_SYSTEM    = UTC
MEAN_ELEMENT_THEORY = SGP/SGP4

EPOCH          = 2026-03-26T06:44:16.054368
MEAN_MOTION    = 14.38927029
ECCENTRICITY   = .00215034
INCLINATION    = 74.0452
RA_OF_ASC_NODE = 81.8808
ARG_OF_PERICENTER = 258.9707
MEAN_ANOMALY   = 202.9188

EPHEMERIS_TYPE = 0
CLASSIFICATION_TYPE = U
NORAD_CAT_ID   = 19257
ELEMENT_SET_NO = 999
REV_AT_EPOCH   = 97898
BSTAR          = .11502068E-3
MEAN_MOTION_DOT = .329E-5
MEAN_MOTION_DDOT = 0

CCSDS_OMM_VERS = 2.0
CREATION_DATE  = 
ORIGINATOR     = 

OBJECT_NAME    = COSMOS 1975
OBJECT_ID      = 1988-093A
CENTER_NAME    = EARTH
REF_FRAME      = TEME
TIME_SYSTEM    = UTC
MEAN_ELEMENT_THEORY = SGP/SGP4

EPOCH          = 2026-03-26T06:59:11.389056
MEAN_MOTION    = 15.28287240
ECCENTRICITY   = .00133132
INCLINATION    = 82.5168
RA_OF_ASC_NODE = 101.0138
ARG_OF_PERICENTER = 110.0942
MEAN_ANOMALY   = 250.1732

EPHEMERIS_TYPE = 0
CLASSIFICATION_TYPE = U
NORAD_CAT_ID   = 19573
ELEMENT_SET_NO = 999
REV_AT_EPOCH   = 2194
BSTAR          = .21557765E-3
MEAN_MOTION_DOT = .5987E-4
MEAN_MOTION_DDOT = 0

CCSDS_OMM_VERS = 2.0
CREATION_DATE  = 
ORIGINATOR     = 

OBJECT_NAME    = SL-14 R/B
OBJECT_ID      = 1988-093B
CENTER_NAME    = EARTH
REF_FRAME      = TEME
TIME_SYSTEM    = UTC
MEAN_ELEMENT_THEORY = SGP/SGP4

EPOCH          = 2026-03-26T07:23:23.576928
MEAN_MOTION    = 14.85675758
ECCENTRICITY   = .00203327
INCLINATION    = 82.5336
RA_OF_ASC_NODE = 26.4456
ARG_OF_PERICENTER = 347.6583
MEAN_ANOMALY   = 126.0224

EPHEMERIS_TYPE = 0
CLASSIFICATION_TYPE = U
NORAD_CAT_ID   = 19574
ELEMENT_SET_NO = 999
REV_AT_EPOCH   = 348
BSTAR          = .6270313E-4
MEAN_MOTION_DOT = .569E-5
MEAN_MOTION_DDOT = 0

CCSDS_OMM_VERS = 2.0
CREATION_DATE  = 
ORIGINATOR     = 

OBJECT_NAME    = SL-16 R/B
OBJECT_ID      = 1988-102B
CENTER_NAME    = EARTH
REF_FRAME      = TEME
TIME_SYSTEM    = UTC
MEAN_ELEMENT_THEORY = SGP/SGP4

EPOCH          = 2026-03-26T07:00:45.582336
MEAN_MOTION    = 14.16154186
ECCENTRICITY   = .00150049
INCLINATION    = 70.9976
RA_OF_ASC_NODE = 116.5644
ARG_OF_PERICENTER = 336.4734
MEAN_ANOMALY   = 23.5701

EPHEMERIS_TYPE = 0
CLASSIFICATION_TYPE = U
NORAD_CAT_ID   = 19650
ELEMENT_SET_NO = 999
REV_AT_EPOCH   = 92924
BSTAR          = -.9139538E-4
MEAN_MOTION_DOT = -.229E-5
MEAN_MOTION_DDOT = 0

CCSDS_OMM_VERS = 2.0
CREATION_DATE  = 
ORIGINATOR     = 

OBJECT_NAME    = INTERCOSMOS 24
OBJECT_ID      = 1989-080A
CENTER_NAME    = EARTH
REF_FRAME      = TEME
TIME_SYSTEM    = UTC
MEAN_ELEMENT_THEORY = SGP/SGP4

EPOCH          = 2026-03-26T07:46:59.010240
MEAN_MOTION    = 12.59579511
ECCENTRICITY   = .11868022
INCLINATION    = 82.6011
RA_OF_ASC_NODE = 93.5684
ARG_OF_PERICENTER = 254.1734
MEAN_ANOMALY   = 92.5627

EPHEMERIS_TYPE = 0
CLASSIFICATION_TYPE = U
NORAD_CAT_ID   = 20261
ELEMENT_SET_NO = 999
REV_AT_EPOCH   = 66889
BSTAR          = .15909515E-3
MEAN_MOTION_DOT = .537E-5
MEAN_MOTION_DDOT = 0

CCSDS_OMM_VERS = 2.0
CREATION_DATE  = 
ORIGINATOR     = 

OBJECT_NAME    = SL-14 R/B
OBJECT_ID      = 1989-080C
CENTER_NAME    = EARTH
REF_FRAME      = TEME
TIME_SYSTEM    = UTC
MEAN_ELEMENT_THEORY = SGP/SGP4

EPOCH          = 2026-03-26T06:42:51.106752
MEAN_MOTION    = 12.50509749
ECCENTRICITY   = .12308749
INCLINATION    = 82.5961
RA_OF_ASC_NODE = 162.5407
ARG_OF_PERICENTER = 146.8477
MEAN_ANOMALY   = 221.6284

EPHEMERIS_TYPE = 0
CLASSIFICATION_TYPE = U
NORAD_CAT_ID   = 20262
ELEMENT_SET_NO = 999
REV_AT_EPOCH   = 66222
BSTAR          = .11124485E-3
MEAN_MOTION_DOT = .397E-5
MEAN_MOTION_DDOT = 0

CCSDS_OMM_VERS = 2.0
CREATION_DATE  = 
ORIGINATOR     = 

OBJECT_NAME    = DELTA 1 R/B
OBJECT_ID      = 1989-089B
CENTER_NAME    = EARTH
REF_FRAME      = TEME
TIME_SYSTEM    = UTC
MEAN_ELEMENT_THEORY = SGP/SGP4

EPOCH          = 2026-03-26T02:32:36.283200
MEAN_MOTION    = 14.50676071
ECCENTRICITY   = .00706247
INCLINATION    = 97.0694
RA_OF_ASC_NODE = 289.9320
ARG_OF_PERICENTER = 71.1509
MEAN_ANOMALY   = 289.7331

EPHEMERIS_TYPE = 0
CLASSIFICATION_TYPE = U
NORAD_CAT_ID   = 20323
ELEMENT_SET_NO = 999
REV_AT_EPOCH   = 89811
BSTAR          = .86751749E-4
MEAN_MOTION_DOT = .317E-5
MEAN_MOTION_DDOT = 0

CCSDS_OMM_VERS = 2.0
CREATION_DATE  = 
ORIGINATOR     = 

OBJECT_NAME    = ARIANE 40 R/B
OBJECT_ID      = 1990-005H
CENTER_NAME    = EARTH
REF_FRAME      = TEME
TIME_SYSTEM    = UTC
MEAN_ELEMENT_THEORY = SGP/SGP4

EPOCH          = 2026-03-26T03:27:11.493792
MEAN_MOTION    = 14.39880961
ECCENTRICITY   = .00108534
INCLINATION    = 98.3049
RA_OF_ASC_NODE = 145.3124
ARG_OF_PERICENTER = 150.0463
MEAN_ANOMALY   = 210.1349

EPHEMERIS_TYPE = 0
CLASSIFICATION_TYPE = U
NORAD_CAT_ID   = 20443
ELEMENT_SET_NO = 999
REV_AT_EPOCH   = 89517
BSTAR          = .97702013E-4
MEAN_MOTION_DOT = .265E-5
MEAN_MOTION_DDOT = 0

CCSDS_OMM_VERS = 2.0
CREATION_DATE  = 
ORIGINATOR     = 

OBJECT_NAME    = DELTA 2 R/B(1)
OBJECT_ID      = 1990-008B
CENTER_NAME    = EARTH
REF_FRAME      = TEME
TIME_SYSTEM    = UTC
MEAN_ELEMENT_THEORY = SGP/SGP4

EPOCH          = 2026-03-26T05:42:47.900160
MEAN_MOTION    = 15.58109959
ECCENTRICITY   = .00786977
INCLINATION    = 35.6039
RA_OF_ASC_NODE = 66.0740
ARG_OF_PERICENTER = 53.1388
MEAN_ANOMALY   = 307.6533

EPHEMERIS_TYPE = 0
CLASSIFICATION_TYPE = U
NORAD_CAT_ID   = 20453
ELEMENT_SET_NO = 999
REV_AT_EPOCH   = 92871
BSTAR          = .76493582E-3
MEAN_MOTION_DOT = .69454E-3
MEAN_MOTION_DDOT = 0

